{"type": "FeatureCollection", "features": [ {"type": "Feature", "properties": {"norad_id": 40115, "name": "WORLDVIEW-3 (WV-3)", "group": "resource", "lat": 80.64935481146401, "lon": -70.78825058350264, "alt_km": 605.8668642943003, "timestamp": "2025-12-05T18:53:12.953913+00:00", "meta": {"OBJECT_NAME": "WORLDVIEW-3 (WV-3)", "OBJECT_ID": "2014-048A", "EPOCH": "2025-12-05T05:31:38.222400", "MEAN_MOTION": 14.85482171, "ECCENTRICITY": 0.00042343, "INCLINATION": 97.8625, "RA_OF_ASC_NODE": 51.6052, "ARG_OF_PERICENTER": 211.1891, "MEAN_ANOMALY": 148.9073, "EPHEMERIS_TYPE": 0, "CLASSIFICATION_TYPE": "U", "NORAD_CAT_ID": 40115, "ELEMENT_SET_NO": 999, "REV_AT_EPOCH": 61312, "BSTAR": 0.00031049206, "MEAN_MOTION_DOT": 2.626e-05, "MEAN_MOTION_DDOT": 0}, "tle": {"line1": "1 40115U 14048A   25339.23030350  .00002626  00000+0  31049-3 0  9991", "line2": "2 40115  97.8625  51.6052 0004234 211.1891 148.9073 14.85482171613121"}}, "geometry": {"type": "Point", "coordinates": [-70.78825058350264, 80.64935481146401]}}, {"type": "Feature", "properties": {"norad_id": 40118, "name": "GAOFEN-2", "group": "resource", "lat": 34.275423714824996, "lon": 33.41532440080055, "alt_km": 626.0875683656968, "timestamp": "2025-12-05T18:53:12.953923+00:00", "meta": {"OBJECT_NAME": "GAOFEN-2", "OBJECT_ID": "2014-049A", "EPOCH": "2025-12-05T07:22:37.297632", "MEAN_MOTION": 14.80587773, "ECCENTRICITY": 0.0008314, "INCLINATION": 98.0396, "RA_OF_ASC_NODE": 38.4626, "ARG_OF_PERICENTER": 134.3765, "MEAN_ANOMALY": 225.8129, "EPHEMERIS_TYPE": 0, "CLASSIFICATION_TYPE": "U", "NORAD_CAT_ID": 40118, "ELEMENT_SET_NO": 999, "REV_AT_EPOCH": 61054, "BSTAR": 0.00019621205, "MEAN_MOTION_DOT": 1.452e-05, "MEAN_MOTION_DDOT": 0}, "tle": {"line1": "1 40118U 14049A   25339.30737613  .00001452  00000+0  19621-3 0  9997", "line2": "2 40118  98.0396  38.4626 0008314 134.3765 225.8129 14.80587773610540"}}, "geometry": {"type": "Point", "coordinates": [33.41532440080055, 34.275423714824996]}}, {"type": "Feature", "properties": {"norad_id": 40143, "name": "YAOGAN-21", "group": "resource", "lat": 3.458819191494994, "lon": 22.966324538701446, "alt_km": 494.182219901747, "timestamp": "2025-12-05T18:53:12.953933+00:00", "meta": {"OBJECT_NAME": "YAOGAN-21", "OBJECT_ID": "2014-053A", "EPOCH": "2025-12-05T07:50:15.586656", "MEAN_MOTION": 15.2353899, "ECCENTRICITY": 0.00101955, "INCLINATION": 97.1767, "RA_OF_ASC_NODE": 22.9623, "ARG_OF_PERICENTER": 64.3729, "MEAN_ANOMALY": 295.8561, "EPHEMERIS_TYPE": 0, "CLASSIFICATION_TYPE": "U", "NORAD_CAT_ID": 40143, "ELEMENT_SET_NO": 999, "REV_AT_EPOCH": 62541, "BSTAR": 0.00047369589, "MEAN_MOTION_DOT": 0.00011273, "MEAN_MOTION_DDOT": 0}, "tle": {"line1": "1 40143U 14053A   25339.32656929  .00011273  00000+0  47370-3 0  9996", "line2": "2 40143  97.1767  22.9623 0010195  64.3729 295.8561 15.23538990625411"}}, "geometry": {"type": "Point", "coordinates": [22.966324538701446, 3.458819191494994]}}, {"type": "Feature", "properties": {"norad_id": 40275, "name": "YAOGAN-22", "group": "resource", "lat": -1.6862176420322603, "lon": 123.42829993107688, "alt_km": 1205.0449339380893, "timestamp": "2025-12-05T18:53:12.953943+00:00", "meta": {"OBJECT_NAME": "YAOGAN-22", "OBJECT_ID": "2014-063A", "EPOCH": "2025-12-05T07:56:39.155136", "MEAN_MOTION": 13.15522529, "ECCENTRICITY": 0.00058933, "INCLINATION": 100.7418, "RA_OF_ASC_NODE": 122.646, "ARG_OF_PERICENTER": 266.1044, "MEAN_ANOMALY": 93.9394, "EPHEMERIS_TYPE": 0, "CLASSIFICATION_TYPE": "U", "NORAD_CAT_ID": 40275, "ELEMENT_SET_NO": 999, "REV_AT_EPOCH": 53432, "BSTAR": 8.1537493e-05, "MEAN_MOTION_DOT": -1.6e-07, "MEAN_MOTION_DDOT": 0}, "tle": {"line1": "1 40275U 14063A   25339.33100874 -.00000016  00000+0  81537-4 0  9995", "line2": "2 40275 100.7418 122.6460 0005893 266.1044  93.9394 13.15522529534329"}}, "geometry": {"type": "Point", "coordinates": [123.42829993107688, -1.6862176420322603]}}, {"type": "Feature", "properties": {"norad_id": 40298, "name": "ASNARO", "group": "resource", "lat": 22.49508293417246, "lon": -121.02368321040399, "alt_km": 504.31906651801, "timestamp": "2025-12-05T18:53:12.953953+00:00", "meta": {"OBJECT_NAME": "ASNARO", "OBJECT_ID": "2014-070A", "EPOCH": "2025-12-05T07:07:56.663040", "MEAN_MOTION": 15.19256443, "ECCENTRICITY": 0.00052351, "INCLINATION": 97.3666, "RA_OF_ASC_NODE": 55.4275, "ARG_OF_PERICENTER": 143.6439, "MEAN_ANOMALY": 216.5152, "EPHEMERIS_TYPE": 0, "CLASSIFICATION_TYPE": "U", "NORAD_CAT_ID": 40298, "ELEMENT_SET_NO": 999, "REV_AT_EPOCH": 61456, "BSTAR": 0.00077860265, "MEAN_MOTION_DOT": 0.00016375, "MEAN_MOTION_DDOT": 0}, "tle": {"line1": "1 40298U 14070A   25339.29718360  .00016375  00000+0  77860-3 0  9995", "line2": "2 40298  97.3666  55.4275 0005235 143.6439 216.5152 15.19256443614569"}}, "geometry": {"type": "Point", "coordinates": [-121.02368321040399, 22.49508293417246]}}, {"type": "Feature", "properties": {"norad_id": 40310, "name": "YAOGAN-24", "group": "resource", "lat": 49.99025809976753, "lon": -59.360933997863114, "alt_km": 628.1949097061388, "timestamp": "2025-12-05T18:53:12.953964+00:00", "meta": {"OBJECT_NAME": "YAOGAN-24", "OBJECT_ID": "2014-072A", "EPOCH": "2025-12-05T08:32:32.420256", "MEAN_MOTION": 14.76152659, "ECCENTRICITY": 0.00143957, "INCLINATION": 98.122, "RA_OF_ASC_NODE": 110.4103, "ARG_OF_PERICENTER": 160.8549, "MEAN_ANOMALY": 199.3204, "EPHEMERIS_TYPE": 0, "CLASSIFICATION_TYPE": "U", "NORAD_CAT_ID": 40310, "ELEMENT_SET_NO": 999, "REV_AT_EPOCH": 59512, "BSTAR": 0.00032236709, "MEAN_MOTION_DOT": 2.178e-05, "MEAN_MOTION_DDOT": 0}, "tle": {"line1": "1 40310U 14072A   25339.35593079  .00002178  00000+0  32237-3 0  9992", "line2": "2 40310  98.1220 110.4103 0014395 160.8549 199.3204 14.76152659595123"}}, "geometry": {"type": "Point", "coordinates": [-59.360933997863114, 49.99025809976753]}}, {"type": "Feature", "properties": {"norad_id": 40336, "name": "CBERS 4", "group": "resource", "lat": 13.933517800732456, "lon": -139.87497229247344, "alt_km": 773.5811055775675, "timestamp": "2025-12-05T18:53:12.953974+00:00", "meta": {"OBJECT_NAME": "CBERS 4", "OBJECT_ID": "2014-079A", "EPOCH": "2025-12-05T08:04:48.372672", "MEAN_MOTION": 14.35513478, "ECCENTRICITY": 0.00014724, "INCLINATION": 98.332, "RA_OF_ASC_NODE": 37.6065, "ARG_OF_PERICENTER": 122.2643, "MEAN_ANOMALY": 237.8686, "EPHEMERIS_TYPE": 0, "CLASSIFICATION_TYPE": "U", "NORAD_CAT_ID": 40336, "ELEMENT_SET_NO": 999, "REV_AT_EPOCH": 57614, "BSTAR": 0.00013634428, "MEAN_MOTION_DOT": 3.5e-06, "MEAN_MOTION_DDOT": 0}, "tle": {"line1": "1 40336U 14079A   25339.33667098  .00000350  00000+0  13634-3 0  9998", "line2": "2 40336  98.3320  37.6065 0001472 122.2643 237.8686 14.35513478576148"}}, "geometry": {"type": "Point", "coordinates": [-139.87497229247344, 13.933517800732456]}}, {"type": "Feature", "properties": {"norad_id": 40362, "name": "YAOGAN-26", "group": "resource", "lat": 50.59452140436065, "lon": -27.97015297202102, "alt_km": 439.79846920320415, "timestamp": "2025-12-05T18:53:12.953985+00:00", "meta": {"OBJECT_NAME": "YAOGAN-26", "OBJECT_ID": "2014-088A", "EPOCH": "2025-12-05T06:10:52.840992", "MEAN_MOTION": 15.38904494, "ECCENTRICITY": 0.00071553, "INCLINATION": 97.0636, "RA_OF_ASC_NODE": 340.2004, "ARG_OF_PERICENTER": 50.2105, "MEAN_ANOMALY": 309.977, "EPHEMERIS_TYPE": 0, "CLASSIFICATION_TYPE": "U", "NORAD_CAT_ID": 40362, "ELEMENT_SET_NO": 999, "REV_AT_EPOCH": 60779, "BSTAR": 0.00075734816, "MEAN_MOTION_DOT": 0.00029172, "MEAN_MOTION_DDOT": 0}, "tle": {"line1": "1 40362U 14088A   25339.25755603  .00029172  00000+0  75735-3 0  9991", "line2": "2 40362  97.0636 340.2004 0007155  50.2105 309.9770 15.38904494607793"}}, "geometry": {"type": "Point", "coordinates": [-27.97015297202102, 50.59452140436065]}}, {"type": "Feature", "properties": {"norad_id": 40376, "name": "SMAP", "group": "resource", "lat": 32.791953901443534, "lon": -20.672592676389876, "alt_km": 679.9478086895197, "timestamp": "2025-12-05T18:53:12.953995+00:00", "meta": {"OBJECT_NAME": "SMAP", "OBJECT_ID": "2015-003A", "EPOCH": "2025-12-05T07:14:54.083040", "MEAN_MOTION": 14.63330289, "ECCENTRICITY": 0.00012089, "INCLINATION": 98.1291, "RA_OF_ASC_NODE": 344.1331, "ARG_OF_PERICENTER": 87.5071, "MEAN_ANOMALY": 272.6269, "EPHEMERIS_TYPE": 0, "CLASSIFICATION_TYPE": "U", "NORAD_CAT_ID": 40376, "ELEMENT_SET_NO": 999, "REV_AT_EPOCH": 57926, "BSTAR": 0.00021892276, "MEAN_MOTION_DOT": 1.083e-05, "MEAN_MOTION_DDOT": 0}, "tle": {"line1": "1 40376U 15003A   25339.30201485  .00001083  00000+0  21892-3 0  9990", "line2": "2 40376  98.1291 344.1331 0001208  87.5071 272.6269 14.63330289579262"}}, "geometry": {"type": "Point", "coordinates": [-20.672592676389876, 32.791953901443534]}}, {"type": "Feature", "properties": {"norad_id": 40536, "name": "KOMPSAT-3A", "group": "resource", "lat": -54.73468071882299, "lon": 122.75342810322036, "alt_km": 442.8533439641333, "timestamp": "2025-12-05T18:53:12.954005+00:00", "meta": {"OBJECT_NAME": "KOMPSAT-3A", "OBJECT_ID": "2015-014A", "EPOCH": "2025-12-05T06:58:46.001280", "MEAN_MOTION": 15.43543788, "ECCENTRICITY": 0.00040084, "INCLINATION": 97.6777, "RA_OF_ASC_NODE": 313.2284, "ARG_OF_PERICENTER": 142.7209, "MEAN_ANOMALY": 217.4316, "EPHEMERIS_TYPE": 0, "CLASSIFICATION_TYPE": "U", "NORAD_CAT_ID": 40536, "ELEMENT_SET_NO": 999, "REV_AT_EPOCH": 59180, "BSTAR": 0.00067738783, "MEAN_MOTION_DOT": 0.00030398, "MEAN_MOTION_DDOT": 0}, "tle": {"line1": "1 40536U 15014A   25339.29081020  .00030398  00000+0  67739-3 0  9990", "line2": "2 40536  97.6777 313.2284 0004008 142.7209 217.4316 15.43543788591808"}}, "geometry": {"type": "Point", "coordinates": [122.75342810322036, -54.73468071882299]}}]}